[
    {
        "Altitude(m)": 716510.8260151498,
        "Argument of Periapsis(deg)": 0.004556048474650827,
        "Eccentricity": 0.0,
        "Inclination(deg)": 45.0,
        "Latitude(deg)": -41.82957828768736,
        "Longitude(deg)": -172.38890997287632,
        "Mean Anomaly(deg)": 250.06778665899233,
        "RAAN(deg)": 44.99569922341672,
        "Satellite Name": "Constellation 1 213",
        "Satellite Number": 213,
        "Semi-Major Axis(m)": 7083131.272910544,
        "Time(s)": 76
    },
    {
        "Altitude(m)": 716518.9079227652,
        "Argument of Periapsis(deg)": 0.004615996480896233,
        "Eccentricity": 0.0,
        "Inclination(deg)": 45.0,
        "Latitude(deg)": -41.84910114963779,
        "Longitude(deg)": -172.316240914776,
        "Mean Anomaly(deg)": 250.12848779924215,
        "RAAN(deg)": 44.99564263425115,
        "Satellite Name": "Constellation 1 213",
        "Satellite Number": 213,
        "Semi-Major Axis(m)": 7083131.272910544,
        "Time(s)": 77
    },
    {
        "Altitude(m)": 716526.9684479177,
        "Argument of Periapsis(deg)": 0.004675944487141638,
        "Eccentricity": 0.0,
        "Inclination(deg)": 45.0,
        "Latitude(deg)": -41.8685725889744,
        "Longitude(deg)": -172.2435253313885,
        "Mean Anomaly(deg)": 250.18918893949208,
        "RAAN(deg)": 44.995586045085574,
        "Satellite Name": "Constellation 1 213",
        "Satellite Number": 213,
        "Semi-Major Axis(m)": 7083131.272910544,
        "Time(s)": 78
    },
    {
        "Altitude(m)": 716535.007561029,
        "Argument of Periapsis(deg)": 0.004735892493387044,
        "Eccentricity": 0.0,
        "Inclination(deg)": 45.0,
        "Latitude(deg)": -41.88799254027354,
        "Longitude(deg)": -172.1707632854574,
        "Mean Anomaly(deg)": 250.24989007974202,
        "RAAN(deg)": 44.99552945592001,
        "Satellite Name": "Constellation 1 213",
        "Satellite Number": 213,
        "Semi-Major Axis(m)": 7083131.272910544,
        "Time(s)": 79
    },
    {
        "Altitude(m)": 716543.025232611,
        "Argument of Periapsis(deg)": 0.004795840499632449,
        "Eccentricity": 0.0,
        "Inclination(deg)": 45.0,
        "Latitude(deg)": -41.907360938182165,
        "Longitude(deg)": -172.09795484026506,
        "Mean Anomaly(deg)": 250.31059121999192,
        "RAAN(deg)": 44.99547286675444,
        "Satellite Name": "Constellation 1 213",
        "Satellite Number": 213,
        "Semi-Major Axis(m)": 7083131.272910544,
        "Time(s)": 80
    },
    {
        "Altitude(m)": 716551.021433238,
        "Argument of Periapsis(deg)": 0.004855788505877855,
        "Eccentricity": 0.0,
        "Inclination(deg)": 45.0,
        "Latitude(deg)": -41.926677717418805,
        "Longitude(deg)": -172.0251000596327,
        "Mean Anomaly(deg)": 250.3712923602418,
        "RAAN(deg)": 44.995416277588866,
        "Satellite Name": "Constellation 1 213",
        "Satellite Number": 213,
        "Semi-Major Axis(m)": 7083131.272910544,
        "Time(s)": 81
    },
    {
        "Altitude(m)": 716558.9961335731,
        "Argument of Periapsis(deg)": 0.00491573651212326,
        "Eccentricity": 0.0,
        "Inclination(deg)": 45.0,
        "Latitude(deg)": -41.945942812773986,
        "Longitude(deg)": -171.9521991760182,
        "Mean Anomaly(deg)": 250.4319935004917,
        "RAAN(deg)": 44.99535968842331,
        "Satellite Name": "Constellation 1 213",
        "Satellite Number": 213,
        "Semi-Major Axis(m)": 7083131.272910544,
        "Time(s)": 82
    },
    {
        "Altitude(m)": 716566.9493043531,
        "Argument of Periapsis(deg)": 0.004975684518368666,
        "Eccentricity": 0.0,
        "Inclination(deg)": 45.0,
        "Latitude(deg)": -41.96515615911238,
        "Longitude(deg)": -171.87925191812917,
        "Mean Anomaly(deg)": 250.49269464074163,
        "RAAN(deg)": 44.99530309925773,
        "Satellite Name": "Constellation 1 213",
        "Satellite Number": 213,
        "Semi-Major Axis(m)": 7083131.272910544,
        "Time(s)": 83
    },
    {
        "Altitude(m)": 716574.8809163851,
        "Argument of Periapsis(deg)": 0.005035632524614072,
        "Eccentricity": 0.0,
        "Inclination(deg)": 45.0,
        "Latitude(deg)": -41.98431769137157,
        "Longitude(deg)": -171.80625851950552,
        "Mean Anomaly(deg)": 250.5533957809915,
        "RAAN(deg)": 44.99524651009216,
        "Satellite Name": "Constellation 1 213",
        "Satellite Number": 213,
        "Semi-Major Axis(m)": 7083131.272910544,
        "Time(s)": 84
    },
    {
        "Altitude(m)": 716582.7909405683,
        "Argument of Periapsis(deg)": 0.0050955805308594785,
        "Eccentricity": 0.0,
        "Inclination(deg)": 45.0,
        "Latitude(deg)": -42.003427344564386,
        "Longitude(deg)": -171.73321904613172,
        "Mean Anomaly(deg)": 250.6140969212414,
        "RAAN(deg)": 44.995189920926585,
        "Satellite Name": "Constellation 1 213",
        "Satellite Number": 213,
        "Semi-Major Axis(m)": 7083131.272910544,
        "Time(s)": 85
    },
    {
        "Altitude(m)": 716590.679347865,
        "Argument of Periapsis(deg)": 0.005155528537104883,
        "Eccentricity": 0.0,
        "Inclination(deg)": 45.0,
        "Latitude(deg)": -42.02248505377928,
        "Longitude(deg)": -171.6601335645347,
        "Mean Anomaly(deg)": 250.6747980614913,
        "RAAN(deg)": 44.995133331761025,
        "Satellite Name": "Constellation 1 213",
        "Satellite Number": 213,
        "Semi-Major Axis(m)": 7083131.272910544,
        "Time(s)": 86
    },
    {
        "Altitude(m)": 716598.5461093276,
        "Argument of Periapsis(deg)": 0.0052154765433502885,
        "Eccentricity": 0.0,
        "Inclination(deg)": 45.0,
        "Latitude(deg)": -42.04149075418121,
        "Longitude(deg)": -171.5870021417841,
        "Mean Anomaly(deg)": 250.73549920174122,
        "RAAN(deg)": 44.99507674259545,
        "Satellite Name": "Constellation 1 213",
        "Satellite Number": 213,
        "Semi-Major Axis(m)": 7083131.272910544,
        "Time(s)": 87
    },
    {
        "Altitude(m)": 716606.3911960811,
        "Argument of Periapsis(deg)": 0.005275424549595694,
        "Eccentricity": 0.0,
        "Inclination(deg)": 45.0,
        "Latitude(deg)": -42.06044438101239,
        "Longitude(deg)": -171.5138248454939,
        "Mean Anomaly(deg)": 250.79620034199115,
        "RAAN(deg)": 44.995020153429884,
        "Satellite Name": "Constellation 1 213",
        "Satellite Number": 213,
        "Semi-Major Axis(m)": 7083131.272910544,
        "Time(s)": 88
    },
    {
        "Altitude(m)": 716614.21457932,
        "Argument of Periapsis(deg)": 0.0053353725558411,
        "Eccentricity": 0.0,
        "Inclination(deg)": 45.0,
        "Latitude(deg)": -42.07934586959289,
        "Longitude(deg)": -171.4406019119188,
        "Mean Anomaly(deg)": 250.85690148224097,
        "RAAN(deg)": 44.99496356426431,
        "Satellite Name": "Constellation 1 213",
        "Satellite Number": 213,
        "Semi-Major Axis(m)": 7083131.272910544,
        "Time(s)": 89
    },
    {
        "Altitude(m)": 716622.016230335,
        "Argument of Periapsis(deg)": 0.005395320562086505,
        "Eccentricity": 0.0,
        "Inclination(deg)": 45.0,
        "Latitude(deg)": -42.098195155322834,
        "Longitude(deg)": -171.36733307356712,
        "Mean Anomaly(deg)": 250.91760262249088,
        "RAAN(deg)": 44.99490697509874,
        "Satellite Name": "Constellation 1 213",
        "Satellite Number": 213,
        "Semi-Major Axis(m)": 7083131.272910544,
        "Time(s)": 90
    },
    {
        "Altitude(m)": 716629.7961204853,
        "Argument of Periapsis(deg)": 0.00545526856833191,
        "Eccentricity": 0.0,
        "Inclination(deg)": 45.0,
        "Latitude(deg)": -42.11699217368117,
        "Longitude(deg)": -171.29401856778378,
        "Mean Anomaly(deg)": 250.9783037627408,
        "RAAN(deg)": 44.99485038593317,
        "Satellite Name": "Constellation 1 213",
        "Satellite Number": 213,
        "Semi-Major Axis(m)": 7083131.272910544,
        "Time(s)": 91
    },
    {
        "Altitude(m)": 716637.5542212065,
        "Argument of Periapsis(deg)": 0.005515216574577317,
        "Eccentricity": 0.0,
        "Inclination(deg)": 45.0,
        "Latitude(deg)": -42.13573686022777,
        "Longitude(deg)": -171.22065846436294,
        "Mean Anomaly(deg)": 251.03900490299068,
        "RAAN(deg)": 44.99479379676761,
        "Satellite Name": "Constellation 1 213",
        "Satellite Number": 213,
        "Semi-Major Axis(m)": 7083131.272910544,
        "Time(s)": 92
    },
    {
        "Altitude(m)": 716645.290504013,
        "Argument of Periapsis(deg)": 0.005575164580822722,
        "Eccentricity": 0.0,
        "Inclination(deg)": 45.0,
        "Latitude(deg)": -42.1544291506042,
        "Longitude(deg)": -171.14725283364461,
        "Mean Anomaly(deg)": 251.09970604324056,
        "RAAN(deg)": 44.994737207602036,
        "Satellite Name": "Constellation 1 213",
        "Satellite Number": 213,
        "Semi-Major Axis(m)": 7083131.272910544,
        "Time(s)": 93
    },
    {
        "Altitude(m)": 716653.004940506,
        "Argument of Periapsis(deg)": 0.005635112587068129,
        "Eccentricity": 0.0,
        "Inclination(deg)": 45.0,
        "Latitude(deg)": -42.17306898053433,
        "Longitude(deg)": -171.0738017465162,
        "Mean Anomaly(deg)": 251.1604071834905,
        "RAAN(deg)": 44.99468061843647,
        "Satellite Name": "Constellation 1 213",
        "Satellite Number": 213,
        "Semi-Major Axis(m)": 7083131.272910544,
        "Time(s)": 94
    }
]